{
  "type": "FeatureCollection",
  "features": [
    {
      "type": "Feature",
      "properties": {
        "norad_id": 41330,
        "name": "COSMOS 2514 (751)",
        "group": "glo-ops",
        "lat": 1.3977890393674632,
        "lon": -39.85582783830402,
        "alt_km": 19154.603597162564,
        "timestamp": "2025-12-09T16:56:36.835896+00:00",
        "meta_object_name": "COSMOS 2514 (751)",
        "meta_object_id": "2016-008A",
        "meta_epoch": "2025-12-09T05:37:58.795392",
        "meta_mean_motion": 2.13102549,
        "meta_eccentricity": 0.0012235,
        "meta_inclination": 65.1358,
        "meta_ra_of_asc_node": 319.5239,
        "meta_arg_of_pericenter": 220.0374,
        "meta_mean_anomaly": 139.8687,
        "meta_ephemeris_type": 0,
        "meta_classification_type": "U",
        "meta_norad_cat_id": 41330,
        "meta_element_set_no": 999,
        "meta_rev_at_epoch": 7657,
        "meta_bstar": 0,
        "meta_mean_motion_dot": -4.9e-07,
        "meta_mean_motion_ddot": 0,
        "tle_line1": "1 41330U 16008A   25343.23470828 -.00000049  00000+0  00000+0 0  9999",
        "tle_line2": "2 41330  65.1358 319.5239 0012235 220.0374 139.8687  2.13102549 76578"
      },
      "geometry": {
        "type": "Point",
        "coordinates": [
          -39.85582783830402,
          1.3977890393674632
        ]
      }
    },
    {
      "type": "Feature",
      "properties": {
        "norad_id": 42939,
        "name": "COSMOS 2522 (752)",
        "group": "glo-ops",
        "lat": 47.10506295329214,
        "lon": -13.234906877606521,
        "alt_km": 19127.273712450133,
        "timestamp": "2025-12-09T16:56:36.835908+00:00",
        "meta_object_name": "COSMOS 2522 (752)",
        "meta_object_id": "2017-055A",
        "meta_epoch": "2025-12-08T03:13:49.063296",
        "meta_mean_motion": 2.13101881,
        "meta_eccentricity": 0.00064484,
        "meta_inclination": 64.0758,
        "meta_ra_of_asc_node": 198.386,
        "meta_arg_of_pericenter": 225.1717,
        "meta_mean_anomaly": 134.8539,
        "meta_ephemeris_type": 0,
        "meta_classification_type": "U",
        "meta_norad_cat_id": 42939,
        "meta_element_set_no": 999,
        "meta_rev_at_epoch": 6390,
        "meta_bstar": 0,
        "meta_mean_motion_dot": 5.1e-07,
        "meta_mean_motion_ddot": 0,
        "tle_line1": "1 42939U 17055A   25342.13459564  .00000051  00000+0  00000+0 0  9992",
        "tle_line2": "2 42939  64.0758 198.3860 0006448 225.1717 134.8539  2.13101881 63907"
      },
      "geometry": {
        "type": "Point",
        "coordinates": [
          -13.234906877606521,
          47.10506295329214
        ]
      }
    },
    {
      "type": "Feature",
      "properties": {
        "norad_id": 43508,
        "name": "COSMOS 2527 (756)",
        "group": "glo-ops",
        "lat": 22.15909198089152,
        "lon": -110.46183307139574,
        "alt_km": 19119.571394838084,
        "timestamp": "2025-12-09T16:56:36.835919+00:00",
        "meta_object_name": "COSMOS 2527 (756)",
        "meta_object_id": "2018-053A",
        "meta_epoch": "2025-12-09T12:04:31.346976",
        "meta_mean_motion": 2.13102032,
        "meta_eccentricity": 0.0008576,
        "meta_inclination": 65.4709,
        "meta_ra_of_asc_node": 80.2399,
        "meta_arg_of_pericenter": 224.3157,
        "meta_mean_anomaly": 135.632,
        "meta_ephemeris_type": 0,
        "meta_classification_type": "U",
        "meta_norad_cat_id": 43508,
        "meta_element_set_no": 999,
        "meta_rev_at_epoch": 5823,
        "meta_bstar": 0,
        "meta_mean_motion_dot": -1.3e-07,
        "meta_mean_motion_ddot": 0,
        "tle_line1": "1 43508U 18053A   25343.50314059 -.00000013  00000+0  00000+0 0  9994",
        "tle_line2": "2 43508  65.4709  80.2399 0008576 224.3157 135.6320  2.13102032 58236"
      },
      "geometry": {
        "type": "Point",
        "coordinates": [
          -110.46183307139574,
          22.15909198089152
        ]
      }
    },
    {
      "type": "Feature",
      "properties": {
        "norad_id": 43687,
        "name": "COSMOS 2529 (757)",
        "group": "glo-ops",
        "lat": 62.78665175446864,
        "lon": -91.46998396592568,
        "alt_km": 19141.596927544815,
        "timestamp": "2025-12-09T16:56:36.835931+00:00",
        "meta_object_name": "COSMOS 2529 (757)",
        "meta_object_id": "2018-086A",
        "meta_epoch": "2025-12-09T03:09:05.938272",
        "meta_mean_motion": 2.13101866,
        "meta_eccentricity": 0.0007294,
        "meta_inclination": 64.2918,
        "meta_ra_of_asc_node": 199.0103,
        "meta_arg_of_pericenter": 254.195,
        "meta_mean_anomaly": 105.7985,
        "meta_ephemeris_type": 0,
        "meta_classification_type": "U",
        "meta_norad_cat_id": 43687,
        "meta_element_set_no": 999,
        "meta_rev_at_epoch": 5523,
        "meta_bstar": 0,
        "meta_mean_motion_dot": 4.4e-07,
        "meta_mean_motion_ddot": 0,
        "tle_line1": "1 43687U 18086A   25343.13131873  .00000044  00000+0  00000+0 0  9991",
        "tle_line2": "2 43687  64.2918 199.0103 0007294 254.1950 105.7985  2.13101866 55239"
      },
      "geometry": {
        "type": "Point",
        "coordinates": [
          -91.46998396592568,
          62.78665175446864
        ]
      }
    },
    {
      "type": "Feature",
      "properties": {
        "norad_id": 44299,
        "name": "COSMOS 2534 (758)",
        "group": "glo-ops",
        "lat": -31.27438378223975,
        "lon": 35.9568965959026,
        "alt_km": 19125.544764813727,
        "timestamp": "2025-12-09T16:56:36.835942+00:00",
        "meta_object_name": "COSMOS 2534 (758)",
        "meta_object_id": "2019-030A",
        "meta_epoch": "2025-12-09T05:29:56.087232",
        "meta_mean_motion": 2.13102103,
        "meta_eccentricity": 0.00090056,
        "meta_inclination": 64.3653,
        "meta_ra_of_asc_node": 199.0114,
        "meta_arg_of_pericenter": 283.3894,
        "meta_mean_anomaly": 286.0531,
        "meta_ephemeris_type": 0,
        "meta_classification_type": "U",
        "meta_norad_cat_id": 44299,
        "meta_element_set_no": 999,
        "meta_rev_at_epoch": 5087,
        "meta_bstar": 0,
        "meta_mean_motion_dot": 4.4e-07,
        "meta_mean_motion_ddot": 0,
        "tle_line1": "1 44299U 19030A   25343.22912138  .00000044  00000+0  00000+0 0  9992",
        "tle_line2": "2 44299  64.3653 199.0114 0009005 283.3894 286.0531  2.13102103 50871"
      },
      "geometry": {
        "type": "Point",
        "coordinates": [
          35.9568965959026,
          -31.27438378223975
        ]
      }
    },
    {
      "type": "Feature",
      "properties": {
        "norad_id": 44850,
        "name": "COSMOS 2544 (759)",
        "group": "glo-ops",
        "lat": -16.274336343599543,
        "lon": -92.2807276213876,
        "alt_km": 19110.647155117716,
        "timestamp": "2025-12-09T16:56:36.835953+00:00",
        "meta_object_name": "COSMOS 2544 (759)",
        "meta_object_id": "2019-088A",
        "meta_epoch": "2025-12-09T10:44:40.842816",
        "meta_mean_motion": 2.13101756,
        "meta_eccentricity": 0.0013649,
        "meta_inclination": 65.4583,
        "meta_ra_of_asc_node": 80.0686,
        "meta_arg_of_pericenter": 249.1242,
        "meta_mean_anomaly": 110.7462,
        "meta_ephemeris_type": 0,
        "meta_classification_type": "U",
        "meta_norad_cat_id": 44850,
        "meta_element_set_no": 999,
        "meta_rev_at_epoch": 4667,
        "meta_bstar": 0,
        "meta_mean_motion_dot": -1.3e-07,
        "meta_mean_motion_ddot": 0,
        "tle_line1": "1 44850U 19088A   25343.44769494 -.00000013  00000+0  00000+0 0  9994",
        "tle_line2": "2 44850  65.4583  80.0686 0013649 249.1242 110.7462  2.13101756 46679"
      },
      "geometry": {
        "type": "Point",
        "coordinates": [
          -92.2807276213876,
          -16.274336343599543
        ]
      }
    },
    {
      "type": "Feature",
      "properties": {
        "norad_id": 45358,
        "name": "COSMOS 2545 (760)",
        "group": "glo-ops",
        "lat": 42.01336181961983,
        "lon": -15.44485861974908,
        "alt_km": 19153.35893273758,
        "timestamp": "2025-12-09T16:56:36.835965+00:00",
        "meta_object_name": "COSMOS 2545 (760)",
        "meta_object_id": "2020-018A",
        "meta_epoch": "2025-12-09T04:10:52.430880",
        "meta_mean_motion": 2.13102242,
        "meta_eccentricity": 0.0011894,
        "meta_inclination": 64.4718,
        "meta_ra_of_asc_node": 319.095,
        "meta_arg_of_pericenter": 248.7657,
        "meta_mean_anomaly": 111.1032,
        "meta_ephemeris_type": 0,
        "meta_classification_type": "U",
        "meta_norad_cat_id": 45358,
        "meta_element_set_no": 999,
        "meta_rev_at_epoch": 4461,
        "meta_bstar": 0,
        "meta_mean_motion_dot": -5e-07,
        "meta_mean_motion_ddot": 0,
        "tle_line1": "1 45358U 20018A   25343.17421795 -.00000050  00000+0  00000+0 0  9993",
        "tle_line2": "2 45358  64.4718 319.0950 0011894 248.7657 111.1032  2.13102242 44617"
      },
      "geometry": {
        "type": "Point",
        "coordinates": [
          -15.44485861974908,
          42.01336181961983
        ]
      }
    }
  ]
}